STARLINK-31019          
1 58540U 23192K   26148.11359613  .00002856  00000+0  95618-4 0  9992
2 58540  53.1615  53.2491 0001171  90.4386 269.6751 15.34404795138155
STARLINK-31045          
1 58541U 23192L   26148.24266105  .00001115  00000+0  49770-4 0  9995
2 58541  53.1600 130.0646 0001071  87.5020 272.6103 15.30202677137073
STARLINK-31030          
1 58542U 23192M   26148.02534360 -.00003055  00000+0 -79372-4 0  9991
2 58542  53.1615  53.4098 0001438 102.0464 258.0700 15.34376988138142
STARLINK-31049          
1 58543U 23192N   26148.02743135  .00001265  00000+0  48583-4 0  9993
2 58543  53.1618  53.4241 0001048  82.2324 277.8797 15.34397019138140
STARLINK-31048          
1 58544U 23192P   26148.14340122  .00002950  00000+0  11166-3 0  9994
2 58544  53.1608  53.3910 0001222  79.4058 280.7080 15.30208581138158
STARLINK-31057          
1 58545U 23192Q   26148.03164548 -.00000717  00000+0 -10096-4 0  9992
2 58545  53.1611  53.4514 0001315  82.9375 277.1777 15.34388346138142
STARLINK-31050          
1 58546U 23192R   26148.05057888  .00000327  00000+0  20818-4 0  9991
2 58546  53.1628  53.5664 0001127 102.2901 257.8228 15.34391442138147
STARLINK-31063          
1 58547U 23192S   26148.13294969  .00000561  00000+0  31063-4 0  9998
2 58547  53.1605  43.3920 0001036  97.0927 263.0191 15.30200658138291
STARLINK-31016          
1 58548U 23192T   26148.14659184 -.00002451  00000+0 -70685-4 0  9999
2 58548  53.1615  53.4066 0001254  84.7013 275.4131 15.30183641138155
STARLINK-31053          
1 58549U 23192U   26148.10308852  .00002819  00000+0  94535-4 0  9995
2 58549  53.1603  53.1858 0000971 102.0977 258.0135 15.34399148138153
STARLINK-31056          
1 58550U 23192V   26148.01909441  .00004900  00000+0  17735-3 0  9997
2 58550  53.1616  54.0821 0001102  89.3553 270.7574 15.30221991138135
STARLINK-30999          
1 58551U 23192W   26147.91389464  .00000715  00000+0  36288-4 0  9998
2 58551  53.1610  44.7856 0001326  93.4153 266.6999 15.30190077138252
STARLINK-31046          
1 58552U 23192X   26148.11781870  .00001309  00000+0  49885-4 0  9996
2 58552  53.1612  53.2764 0000996  98.6756 261.4360 15.34391626138157
HONGHU 2                
1 58555U 23193C   26148.24004715  .00423650  00000+0  15738-1 0  9994
2 58555  97.2788 139.0248 0040381 346.0546  13.9573 15.24999818 98968
YAOGAN-39 05A           
1 58557U 23194A   26148.30384780  .00008566  00000+0  35501-3 0  9994
2 58557  35.0001 182.4403 0005530 146.4950 213.6115 15.23150402137323
YAOGAN-39 05B           
1 58558U 23194B   26148.30982920  .00004718  00000+0  23163-3 0  9991
2 58558  34.9913 205.1736 0009538 144.2290 215.9063 15.17453948137074
YAOGAN-39 05C           
1 58559U 23194C   26148.31353786  .00006145  00000+0  30106-3 0  9996
2 58559  34.9911 205.1700 0013347 224.0552 135.9097 15.17419018137107
ALISIO-1                
1 58562U 23185M   26148.26707535  .00004591  00000+0  23632-3 0  9998
2 58562  97.5377 221.7287 0007006  38.5181 321.6551 15.16900143135534
QPS-SAR-5 (TSUKUYOMI-I) 
1 58578U 23196A   26148.29216426  .00015714  00000+0  67623-3 0  9991
2 58578  42.0089 129.1590 0024841 151.7634 208.4552 15.22069769135216
YAOGAN-41               
1 58582U 23197A   26148.31732843 -.00000356  00000+0  00000+0 0  9995
2 58582   3.1643 312.8493 0013757 188.2221 342.2153  1.00269853  9120
ARKTIKA-M 2             
1 58584U 23198A   26146.82602476  .00000165  00000+0  00000+0 0  9997
2 58584  63.2204 156.7485 6896513 267.4914  18.7881  2.00593121 17897
STARLINK-31044          
1 58589U 23200A   26148.23695220 -.00000347  00000+0 -30815-5 0  9999
2 58589  43.0016  79.8466 0000777 254.1016 105.9750 15.27577815135779
STARLINK-31062          
1 58590U 23200B   26148.20947807  .00000498  00000+0  27611-4 0  9993
2 58590  43.0059  83.0678 0001317 277.2839  82.7863 15.27579039135733
STARLINK-31096          
1 58592U 23200D   26147.96762971  .00042791  00000+0  13537-2 0  9996
2 58592  42.9973  81.2640 0010643 186.7292 173.3420 15.32033541135731
STARLINK-31094          
1 58593U 23200E   26148.20996329  .00001266  00000+0  55534-4 0  9998
2 58593  43.0037  79.6669 0001296 288.4555  71.6156 15.27582358135772
STARLINK-31075          
1 58594U 23200F   26147.86247823  .00003782  00000+0  14687-3 0  9996
2 58594  43.0045  81.3521 0001171 277.0667  83.0052 15.27583636135726
STARLINK-30857          
1 58595U 23200G   26148.21767791  .00001671  00000+0  70249-4 0  9990
2 58595  43.0043  79.7218 0001396 267.7785  92.2907 15.27575761135771
STARLINK-31059          
1 58596U 23200H   26147.69350311  .00000948  00000+0  43998-4 0  9995
2 58596  43.0084 285.9635 0002409 279.7000  80.3580 15.27575777137538
STARLINK-31087          
1 58597U 23200J   26148.19325836  .00001615  00000+0  68184-4 0  9992
2 58597  43.0062  79.5393 0001066 274.5866  85.4864 15.27580353135663
STARLINK-31079          
1 58598U 23200K   26148.25001157  .00314432  00000+0  32877-2 0  9999
2 58598  42.9780  35.8935 0033321 222.7211 182.5291 15.62011537  5867
