OBJECT_NAME,OBJECT_ID,EPOCH,MEAN_MOTION,ECCENTRICITY,INCLINATION,RA_OF_ASC_NODE,ARG_OF_PERICENTER,MEAN_ANOMALY,EPHEMERIS_TYPE,CLASSIFICATION_TYPE,NORAD_CAT_ID,ELEMENT_SET_NO,REV_AT_EPOCH,BSTAR,MEAN_MOTION_DOT,MEAN_MOTION_DDOT
STARLINK-31019,2023-192K,2026-05-28T02:43:34.705632,15.34404795,.00011718,53.1615,53.2491,90.4386,269.6751,0,U,58540,999,13815,.95618472E-4,.2856E-4,0
STARLINK-31045,2023-192L,2026-05-28T05:49:25.914720,15.30202677,.00010718,53.1600,130.0646,87.5020,272.6103,0,U,58541,999,13707,.49769501E-4,.1115E-4,0
STARLINK-31030,2023-192M,2026-05-28T00:36:29.687040,15.34376988,.00014381,53.1615,53.4098,102.0464,258.0700,0,U,58542,999,13814,-.79372021E-4,-.3055E-4,0
STARLINK-31049,2023-192N,2026-05-28T00:39:30.068640,15.34397019,.00010486,53.1618,53.4241,82.2324,277.8797,0,U,58543,999,13814,.48582576E-4,.1265E-4,0
STARLINK-31048,2023-192P,2026-05-28T03:26:29.865408,15.30208581,.00012225,53.1608,53.3910,79.4058,280.7080,0,U,58544,999,13815,.11165572E-3,.295E-4,0
STARLINK-31057,2023-192Q,2026-05-28T00:45:34.169472,15.34388346,.00013157,53.1611,53.4514,82.9375,277.1777,0,U,58545,999,13814,-.10096332E-4,-.717E-5,0
STARLINK-31050,2023-192R,2026-05-28T01:12:50.015232,15.34391442,.00011274,53.1628,53.5664,102.2901,257.8228,0,U,58546,999,13814,.20818283E-4,.327E-5,0
STARLINK-31063,2023-192S,2026-05-28T03:11:26.853216,15.30200658,.00010364,53.1605,43.3920,97.0927,263.0191,0,U,58547,999,13829,.3106252E-4,.561E-5,0
STARLINK-31016,2023-192T,2026-05-28T03:31:05.534976,15.30183641,.0001254,53.1615,53.4066,84.7013,275.4131,0,U,58548,999,13815,-.70685159E-4,-.2451E-4,0
STARLINK-31053,2023-192U,2026-05-28T02:28:26.848128,15.34399148,.00009711,53.1603,53.1858,102.0977,258.0135,0,U,58549,999,13815,.9453524E-4,.2819E-4,0
STARLINK-31056,2023-192V,2026-05-28T00:27:29.757024,15.30221991,.00011024,53.1616,54.0821,89.3553,270.7574,0,U,58550,999,13813,.17735019E-3,.49E-4,0
STARLINK-30999,2023-192W,2026-05-27T21:56:00.496896,15.30190077,.0001326,53.1610,44.7856,93.4153,266.6999,0,U,58551,999,13825,.36288E-4,.715E-5,0
STARLINK-31046,2023-192X,2026-05-28T02:49:39.535680,15.34391626,.00009966,53.1612,53.2764,98.6756,261.4360,0,U,58552,999,13815,.49885235E-4,.1309E-4,0
HONGHU 2,2023-193C,2026-05-28T05:45:40.073760,15.24999818,.00403814,97.2788,139.0248,346.0546,13.9573,0,U,58555,999,9896,.15738095E-1,.42365E-2,0
YAOGAN-39 05A,2023-194A,2026-05-28T07:17:32.449920,15.23150402,.00055307,35.0001,182.4403,146.4950,213.6115,0,U,58557,999,13732,.35500987E-3,.8566E-4,0
YAOGAN-39 05B,2023-194B,2026-05-28T07:26:09.242880,15.17453948,.00095384,34.9913,205.1736,144.2290,215.9063,0,U,58558,999,13707,.23162834E-3,.4718E-4,0
YAOGAN-39 05C,2023-194C,2026-05-28T07:31:29.671104,15.17419018,.00133471,34.9911,205.1700,224.0552,135.9097,0,U,58559,999,13710,.30105537E-3,.6145E-4,0
ALISIO-1,2023-185M,2026-05-28T06:24:35.310240,15.16900143,.00070066,97.5377,221.7287,38.5181,321.6551,0,U,58562,999,13553,.23632478E-3,.4591E-4,0
QPS-SAR-5 (TSUKUYOMI-I),2023-196A,2026-05-28T07:00:42.992064,15.22069769,.00248419,42.0089,129.1590,151.7634,208.4552,0,U,58578,999,13521,.67622555E-3,.15714E-3,0
YAOGAN-41,2023-197A,2026-05-28T07:36:57.176352,1.00269853,.0013757,3.1643,312.8493,188.2221,342.2153,0,U,58582,999,912,0,-.356E-5,0
ARKTIKA-M 2,2023-198A,2026-05-26T19:49:28.539264,2.00593121,.6896513,63.2204,156.7485,267.4914,18.7881,0,U,58584,999,1789,0,.165E-5,0
STARLINK-31044,2023-200A,2026-05-28T05:41:12.670080,15.27577815,.00007779,43.0016,79.8466,254.1016,105.9750,0,U,58589,999,13577,-.308146E-5,-.347E-5,0
STARLINK-31062,2023-200B,2026-05-28T05:01:38.905248,15.27579039,.0001317,43.0059,83.0678,277.2839,82.7863,0,U,58590,999,13573,.2761053E-4,.498E-5,0
STARLINK-31096,2023-200D,2026-05-27T23:13:23.206944,15.32033541,.00106439,42.9973,81.2640,186.7292,173.3420,0,U,58592,999,13573,.1353672E-2,.42791E-3,0
STARLINK-31094,2023-200E,2026-05-28T05:02:20.828256,15.27582358,.00012966,43.0037,79.6669,288.4555,71.6156,0,U,58593,999,13577,.55533959E-4,.1266E-4,0
STARLINK-31075,2023-200F,2026-05-27T20:41:58.119072,15.27583636,.00011716,43.0045,81.3521,277.0667,83.0052,0,U,58594,999,13572,.14686778E-3,.3782E-4,0
STARLINK-30857,2023-200G,2026-05-28T05:13:27.371424,15.27575761,.00013962,43.0043,79.7218,267.7785,92.2907,0,U,58595,999,13577,.70249482E-4,.1671E-4,0
STARLINK-31059,2023-200H,2026-05-27T16:38:38.668704,15.27575777,.00024093,43.0084,285.9635,279.7000,80.3580,0,U,58596,999,13753,.43998345E-4,.948E-5,0
STARLINK-31087,2023-200J,2026-05-28T04:38:17.522304,15.27580353,.00010664,43.0062,79.5393,274.5866,85.4864,0,U,58597,999,13566,.68184022E-4,.1615E-4,0
STARLINK-31079,2023-200K,2026-05-28T06:00:00.999648,15.62011537,.00333219,42.9780,35.8935,222.7211,182.5291,0,U,58598,999,586,.32877041E-2,.314432E-2,0
